ONEWEB-0340             
1 49206U 21083W   26197.80123000 -.00000010  00000+0 -58420-4 0  9999
2 49206  87.9199 329.5676 0001872  94.1188 266.0158 13.18686711233876
ONEWEB-0341             
1 49207U 21083X   26197.80796784 -.00000005  00000+0 -46023-4 0  9995
2 49207  87.9192 329.5676 0002300  89.6215 270.5181 13.18687384233892
ONEWEB-0342             
1 49208U 21083Y   26197.66874580 -.00000018  00000+0 -76253-4 0  9993
2 49208  87.9186 268.5622 0002153 100.4246 259.7130 13.20772220240675
ONEWEB-0343             
1 49209U 21083Z   26197.81640337  .00000019  00000+0  15320-4 0  9999
2 49209  87.9193 329.5648 0002244 105.5883 254.5497 13.18687590233947
ONEWEB-0344             
1 49210U 21083AA  26197.37203704  .00000017  00000+0  12426-4 0  9997
2 49210  87.8977 314.4306 0002248  91.4553 268.6834 13.13469814234723
ONEWEB-0345             
1 49211U 21083AB  26197.74446898 -.00000233  00000+0 -67384-3 0  9996
2 49211  87.8987 314.3417 0002224  94.3872 265.7511 13.13469789234784
ONEWEB-0346             
1 49212U 21083AC  26197.81302961  .00000027  00000+0  36189-4 0  9996
2 49212  87.9189 329.5647 0001489  80.4946 279.6354 13.18687621233884
ONEWEB-0348             
1 49213U 21083AD  26197.65864853 -.00000042  00000+0 -13421-3 0  9994
2 49213  87.9188 268.5688 0002072  84.2176 275.9193 13.20772377240702
ONEWEB-0350             
1 49214U 21083AE  26197.76322301  .00000178  00000+0  45274-3 0  9993
2 49214  87.8983 314.3428 0001670 133.2860 226.8409 13.13471748234815
ONEWEB-0351             
1 49215U 21083AF  26197.65177390 -.00000026  00000+0 -96950-4 0  9990
2 49215  87.9186 268.5687 0002680 102.7564 257.3869 13.20770692240660
ONEWEB-0352             
1 49216U 21083AG  26197.58195623 -.00000272  00000+0 -77868-3 0  9991
2 49216  87.8979 314.3831 0002320 106.5053 253.6331 13.13469567234885
ONEWEB-0354             
1 49217U 21083AH  26197.60309308  .00000084  00000+0  17407-3 0  9994
2 49217  87.9186 268.5769 0002187  86.9639 273.1745 13.20770895240698
ONEWEB-0355             
1 49218U 21083AJ  26197.84009469  .00000173  00000+0  43868-3 0  9995
2 49218  87.8977 314.3323 0002145 100.2103 259.9268 13.13467971234798
ONEWEB-0357             
1 49219U 21083AK  26197.59971891  .00000067  00000+0  13175-3 0  9995
2 49219  87.9185 268.5715 0002263 100.4891 259.6497 13.20769571240699
ONEWEB-0332             
1 49279U 21090A   26197.29563069  .00000136  00000+0  33136-3 0  9996
2 49279  87.8965 283.9093 0002028 106.1389 253.9964 13.14503244231405
ONEWEB-0347             
1 49280U 21090B   26197.58962080 -.00000028  00000+0 -10057-3 0  9995
2 49280  87.9187 268.5819 0002042 105.6994 254.4364 13.20769359234929
