{"fetched_at":"2026-07-17T06:37:51.309Z","source":"https://celestrak.org/NORAD/elements/gp.php?GROUP=oneweb&FORMAT=JSON","constellation":"oneweb","records":[{"OBJECT_NAME":"ONEWEB-0340","OBJECT_ID":"2021-083W","EPOCH":"2026-07-16T19:13:46.272000","CLASSIFICATION_TYPE":"U","MEAN_MOTION":13.18686711,"ECCENTRICITY":0.0001872,"INCLINATION":87.9199,"RA_OF_ASC_NODE":329.5676,"ARG_OF_PERICENTER":94.1188,"MEAN_ANOMALY":266.0158,"EPHEMERIS_TYPE":0,"NORAD_CAT_ID":49206,"ELEMENT_SET_NO":999,"REV_AT_EPOCH":23387,"BSTAR":-0.00005842,"MEAN_MOTION_DOT":-1e-7,"MEAN_MOTION_DDOT":0},{"OBJECT_NAME":"ONEWEB-0341","OBJECT_ID":"2021-083X","EPOCH":"2026-07-16T19:23:28.421376","CLASSIFICATION_TYPE":"U","MEAN_MOTION":13.18687384,"ECCENTRICITY":0.00023,"INCLINATION":87.9192,"RA_OF_ASC_NODE":329.5676,"ARG_OF_PERICENTER":89.6215,"MEAN_ANOMALY":270.5181,"EPHEMERIS_TYPE":0,"NORAD_CAT_ID":49207,"ELEMENT_SET_NO":999,"REV_AT_EPOCH":23389,"BSTAR":-0.000046023,"MEAN_MOTION_DOT":-5e-8,"MEAN_MOTION_DDOT":0},{"OBJECT_NAME":"ONEWEB-0342","OBJECT_ID":"2021-083Y","EPOCH":"2026-07-16T16:02:59.637120","CLASSIFICATION_TYPE":"U","MEAN_MOTION":13.2077222,"ECCENTRICITY":0.0002153,"INCLINATION":87.9186,"RA_OF_ASC_NODE":268.5622,"ARG_OF_PERICENTER":100.4246,"MEAN_ANOMALY":259.713,"EPHEMERIS_TYPE":0,"NORAD_CAT_ID":49208,"ELEMENT_SET_NO":999,"REV_AT_EPOCH":24067,"BSTAR":-0.000076253,"MEAN_MOTION_DOT":-1.8e-7,"MEAN_MOTION_DDOT":0},{"OBJECT_NAME":"ONEWEB-0343","OBJECT_ID":"2021-083Z","EPOCH":"2026-07-16T19:35:37.251168","CLASSIFICATION_TYPE":"U","MEAN_MOTION":13.1868759,"ECCENTRICITY":0.0002244,"INCLINATION":87.9193,"RA_OF_ASC_NODE":329.5648,"ARG_OF_PERICENTER":105.5883,"MEAN_ANOMALY":254.5497,"EPHEMERIS_TYPE":0,"NORAD_CAT_ID":49209,"ELEMENT_SET_NO":999,"REV_AT_EPOCH":23394,"BSTAR":0.00001532,"MEAN_MOTION_DOT":1.9e-7,"MEAN_MOTION_DDOT":0},{"OBJECT_NAME":"ONEWEB-0344","OBJECT_ID":"2021-083AA","EPOCH":"2026-07-16T08:55:44.000256","CLASSIFICATION_TYPE":"U","MEAN_MOTION":13.13469814,"ECCENTRICITY":0.0002248,"INCLINATION":87.8977,"RA_OF_ASC_NODE":314.4306,"ARG_OF_PERICENTER":91.4553,"MEAN_ANOMALY":268.6834,"EPHEMERIS_TYPE":0,"NORAD_CAT_ID":49210,"ELEMENT_SET_NO":999,"REV_AT_EPOCH":23472,"BSTAR":0.000012426,"MEAN_MOTION_DOT":1.7e-7,"MEAN_MOTION_DDOT":0},{"OBJECT_NAME":"ONEWEB-0345","OBJECT_ID":"2021-083AB","EPOCH":"2026-07-16T17:52:02.119872","CLASSIFICATION_TYPE":"U","MEAN_MOTION":13.13469789,"ECCENTRICITY":0.0002224,"INCLINATION":87.8987,"RA_OF_ASC_NODE":314.3417,"ARG_OF_PERICENTER":94.3872,"MEAN_ANOMALY":265.7511,"EPHEMERIS_TYPE":0,"NORAD_CAT_ID":49211,"ELEMENT_SET_NO":999,"REV_AT_EPOCH":23478,"BSTAR":-0.00067384,"MEAN_MOTION_DOT":-0.00000233,"MEAN_MOTION_DDOT":0},{"OBJECT_NAME":"ONEWEB-0346","OBJECT_ID":"2021-083AC","EPOCH":"2026-07-16T19:30:45.758304","CLASSIFICATION_TYPE":"U","MEAN_MOTION":13.18687621,"ECCENTRICITY":0.0001489,"INCLINATION":87.9189,"RA_OF_ASC_NODE":329.5647,"ARG_OF_PERICENTER":80.4946,"MEAN_ANOMALY":279.6354,"EPHEMERIS_TYPE":0,"NORAD_CAT_ID":49212,"ELEMENT_SET_NO":999,"REV_AT_EPOCH":23388,"BSTAR":0.000036189,"MEAN_MOTION_DOT":2.7e-7,"MEAN_MOTION_DDOT":0},{"OBJECT_NAME":"ONEWEB-0348","OBJECT_ID":"2021-083AD","EPOCH":"2026-07-16T15:48:27.232992","CLASSIFICATION_TYPE":"U","MEAN_MOTION":13.20772377,"ECCENTRICITY":0.0002072,"INCLINATION":87.9188,"RA_OF_ASC_NODE":268.5688,"ARG_OF_PERICENTER":84.2176,"MEAN_ANOMALY":275.9193,"EPHEMERIS_TYPE":0,"NORAD_CAT_ID":49213,"ELEMENT_SET_NO":999,"REV_AT_EPOCH":24070,"BSTAR":-0.00013421,"MEAN_MOTION_DOT":-4.2e-7,"MEAN_MOTION_DDOT":0},{"OBJECT_NAME":"ONEWEB-0350","OBJECT_ID":"2021-083AE","EPOCH":"2026-07-16T18:19:02.468064","CLASSIFICATION_TYPE":"U","MEAN_MOTION":13.13471748,"ECCENTRICITY":0.000167,"INCLINATION":87.8983,"RA_OF_ASC_NODE":314.3428,"ARG_OF_PERICENTER":133.286,"MEAN_ANOMALY":226.8409,"EPHEMERIS_TYPE":0,"NORAD_CAT_ID":49214,"ELEMENT_SET_NO":999,"REV_AT_EPOCH":23481,"BSTAR":0.00045274,"MEAN_MOTION_DOT":0.00000178,"MEAN_MOTION_DDOT":0},{"OBJECT_NAME":"ONEWEB-0351","OBJECT_ID":"2021-083AF","EPOCH":"2026-07-16T15:38:33.264960","CLASSIFICATION_TYPE":"U","MEAN_MOTION":13.20770692,"ECCENTRICITY":0.000268,"INCLINATION":87.9186,"RA_OF_ASC_NODE":268.5687,"ARG_OF_PERICENTER":102.7564,"MEAN_ANOMALY":257.3869,"EPHEMERIS_TYPE":0,"NORAD_CAT_ID":49215,"ELEMENT_SET_NO":999,"REV_AT_EPOCH":24066,"BSTAR":-0.00009695,"MEAN_MOTION_DOT":-2.6e-7,"MEAN_MOTION_DDOT":0},{"OBJECT_NAME":"ONEWEB-0352","OBJECT_ID":"2021-083AG","EPOCH":"2026-07-16T13:58:01.018272","CLASSIFICATION_TYPE":"U","MEAN_MOTION":13.13469567,"ECCENTRICITY":0.000232,"INCLINATION":87.8979,"RA_OF_ASC_NODE":314.3831,"ARG_OF_PERICENTER":106.5053,"MEAN_ANOMALY":253.6331,"EPHEMERIS_TYPE":0,"NORAD_CAT_ID":49216,"ELEMENT_SET_NO":999,"REV_AT_EPOCH":23488,"BSTAR":-0.00077868,"MEAN_MOTION_DOT":-0.00000272,"MEAN_MOTION_DDOT":0},{"OBJECT_NAME":"ONEWEB-0354","OBJECT_ID":"2021-083AH","EPOCH":"2026-07-16T14:28:27.242112","CLASSIFICATION_TYPE":"U","MEAN_MOTION":13.20770895,"ECCENTRICITY":0.0002187,"INCLINATION":87.9186,"RA_OF_ASC_NODE":268.5769,"ARG_OF_PERICENTER":86.9639,"MEAN_ANOMALY":273.1745,"EPHEMERIS_TYPE":0,"NORAD_CAT_ID":49217,"ELEMENT_SET_NO":999,"REV_AT_EPOCH":24069,"BSTAR":0.00017407,"MEAN_MOTION_DOT":8.4e-7,"MEAN_MOTION_DDOT":0},{"OBJECT_NAME":"ONEWEB-0355","OBJECT_ID":"2021-083AJ","EPOCH":"2026-07-16T20:09:44.181216","CLASSIFICATION_TYPE":"U","MEAN_MOTION":13.13467971,"ECCENTRICITY":0.0002145,"INCLINATION":87.8977,"RA_OF_ASC_NODE":314.3323,"ARG_OF_PERICENTER":100.2103,"MEAN_ANOMALY":259.9268,"EPHEMERIS_TYPE":0,"NORAD_CAT_ID":49218,"ELEMENT_SET_NO":999,"REV_AT_EPOCH":23479,"BSTAR":0.00043868,"MEAN_MOTION_DOT":0.00000173,"MEAN_MOTION_DDOT":0},{"OBJECT_NAME":"ONEWEB-0357","OBJECT_ID":"2021-083AK","EPOCH":"2026-07-16T14:23:35.713824","CLASSIFICATION_TYPE":"U","MEAN_MOTION":13.20769571,"ECCENTRICITY":0.0002263,"INCLINATION":87.9185,"RA_OF_ASC_NODE":268.5715,"ARG_OF_PERICENTER":100.4891,"MEAN_ANOMALY":259.6497,"EPHEMERIS_TYPE":0,"NORAD_CAT_ID":49219,"ELEMENT_SET_NO":999,"REV_AT_EPOCH":24069,"BSTAR":0.00013175,"MEAN_MOTION_DOT":6.7e-7,"MEAN_MOTION_DDOT":0},{"OBJECT_NAME":"ONEWEB-0332","OBJECT_ID":"2021-090A","EPOCH":"2026-07-16T07:05:42.491616","CLASSIFICATION_TYPE":"U","MEAN_MOTION":13.14503244,"ECCENTRICITY":0.0002028,"INCLINATION":87.8965,"RA_OF_ASC_NODE":283.9093,"ARG_OF_PERICENTER":106.1389,"MEAN_ANOMALY":253.9964,"EPHEMERIS_TYPE":0,"NORAD_CAT_ID":49279,"ELEMENT_SET_NO":999,"REV_AT_EPOCH":23140,"BSTAR":0.00033136,"MEAN_MOTION_DOT":0.00000136,"MEAN_MOTION_DDOT":0},{"OBJECT_NAME":"ONEWEB-0347","OBJECT_ID":"2021-090B","EPOCH":"2026-07-16T14:09:03.237120","CLASSIFICATION_TYPE":"U","MEAN_MOTION":13.20769359,"ECCENTRICITY":0.0002042,"INCLINATION":87.9187,"RA_OF_ASC_NODE":268.5819,"ARG_OF_PERICENTER":105.6994,"MEAN_ANOMALY":254.4364,"EPHEMERIS_TYPE":0,"NORAD_CAT_ID":49280,"ELEMENT_SET_NO":999,"REV_AT_EPOCH":23492,"BSTAR":-0.00010057,"MEAN_MOTION_DOT":-2.8e-7,"MEAN_MOTION_DDOT":0}]}
